COSMO-SKYMED 1          
1 31598U 07023A   26164.85997110  .00002583  00000+0  22920-3 0  9992
2 31598  97.8841 356.6882 0001060  95.6941 264.4401 14.97084981 29298
COSMOS 2428             
1 31792U 07029A   26164.81627772 -.00000131  00000+0 -44550-4 0  9997
2 31792  70.9370   1.5557 0007164 141.4459 218.7175 14.12928678977674
SL-16 R/B               
1 31793U 07029B   26164.86601034  .00000233  00000+0  14540-3 0  9992
2 31793  70.9767 330.2101 0002261 261.1745 204.4372 14.14853616978979
KORONAS-FOTON           
1 33504U 09003A   26164.84158652  .00013109  00000+0  27038-3 0  9991
2 33504  82.4281 175.7493 0011316 158.4804 201.6922 15.45665122960587
CZ-2C R/B               
1 37731U 11030B   26164.86517529  .00001220  00000+0  15885-3 0  9992
2 37731  97.8654 120.3113 0053299  38.6003  15.5015 14.81464151804331
H-2A R/B                
1 38341U 12025E   26164.87891660  .00003440  00000+0  30933-3 0  9994
2 38341  98.4822 139.7517 0043861   0.1706 359.9520 14.95701928762591
SHIJIAN-16 (SJ-16)      
1 39358U 13057A   26164.88802869  .00000393  00000+0  41008-4 0  9993
2 39358  74.9733   2.9329 0016839 238.5368 121.4175 14.92598953685858
SL-4 R/B                
1 39679U 14021B   26164.43441138  .00010504  00000+0  21837-3 0  9992
2 39679  51.6053 229.1564 0091376  92.2944 268.8507 15.41884042671031
ALOS-2                  
1 39766U 14029A   26164.82515799  .00001499  00000+0  20749-3 0  9999
2 39766  97.9216 262.0365 0001603  89.5561 270.5834 14.79477981651081
YAOGAN-29               
1 41038U 15069A   26164.87187385 -.00000089  00000+0 -42718-5 0  9998
2 41038  98.0033 193.4992 0002771  59.3891 300.7595 14.83081356570134
ASTRO-H (HITOMI)        
1 41337U 16012A   26164.53198127  .00002491  00000+0  14180-3 0  9995
2 41337  30.9989  97.7930 0009739 217.5160 142.4799 15.10496033566738
HXMT (HUIYAN)           
1 42758U 17034A   26164.58229022  .00003909  00000+0  19572-3 0  9997
2 42758  43.0128 203.1146 0030272 123.5004 236.8744 15.18458559497119
SAOCOM 1A               
1 43641U 18076A   26164.82800277  .00000876  00000+0  11655-3 0  9994
2 43641  97.8883 351.6262 0001634  78.9348 281.2049 14.82148470415602
H-2A R/B                
1 43682U 18084L   26164.63112324  .00021353  00000+0  44948-3 0  9990
2 43682  98.8590  42.7447 0023820  52.4165 307.9238 15.45028112420579
SAOCOM 1B               
1 46265U 20059A   26164.85923622  .00000226  00000+0  34975-4 0  9996
2 46265  97.8885 350.7514 0001478  82.7253 277.4128 14.82167419312990
CSS (TIANHE)            
1 48274U 21035A   26164.84158950  .00024252  00000+0  28689-3 0  9995
2 48274  41.4695 342.3609 0007804  49.8258 310.3263 15.60672813292648
COSMOS 2550             
1 48865U 21056A   26164.82890845 -.00000154  00000+0  11539-5 0  9992
2 48865  67.1405 110.0648 0008546 267.9276  92.0900 15.33832333278201
CZ-2C R/B               
1 52794U 22058K   26164.53113304  .00035189  00000+0  39469-3 0  9992
2 52794  50.1836 182.5390 0032703 252.8586 106.8805 15.61605462225071
CZ-2C R/B               
1 54039U 22132E   26164.58616192  .00054947  00000+0  43279-3 0  9994
2 54039  97.2895 171.4506 0016488  95.2167 265.0978 15.71113849205389
GSLV R/B                
1 54149U 22138AN  26164.84288113  .00002628  00000+0  22351-3 0  9996
2 54149  87.3797 134.1070 0022387 154.9560 205.2763 14.97242136198310
XRISM                   
1 57800U 23137A   26164.89088244  .00004860  00000+0  26715-3 0  9999
2 57800  31.0031  20.9529 0007976 290.9953  68.9833 15.12439115152369
ACS3                    
1 59588U 24077B   26164.75995602  .00004195  00000+0  31444-2 0  9993
2 59588  97.1680  84.3102 0066454  66.7378 294.0766 13.93840151107566
CZ-8A R/B               
1 66004U 25231K   26164.41859465 -.00000053  00000+0  39491-4 0  9998
2 66004  50.0053  55.3493 0116465 210.7365 148.6694 14.30153966 34404
SZ-21 MODULE            
1 66515U 25246C   26164.73115899  .00045764  00000+0  28446-3 0  9996
2 66515  41.4731 328.8460 0006751 328.3391  31.7047 15.76117488 33190
